[
    {
        "Name": "臺北市",
        "CityEngName": "Taipei City",
        "AreaList": [
            {
                "ZipCode": "100",
                "Name": "中正區",
                "AreaEngName": "Zhongzheng Dist."
            },
            {
                "ZipCode": "103",
                "Name": "大同區",
                "AreaEngName": "Datong Dist."
            },
            {
                "ZipCode": "104",
                "Name": "中山區",
                "AreaEngName": "Zhongshan Dist."
            },
            {
                "ZipCode": "105",
                "Name": "松山區",
                "AreaEngName": "Songshan Dist."
            },
            {
                "ZipCode": "106",
                "Name": "大安區",
                "AreaEngName": "Da’an Dist."
            },
            {
                "ZipCode": "108",
                "Name": "萬華區",
                "AreaEngName": "Wanhua Dist."
            },
            {
                "ZipCode": "110",
                "Name": "信義區",
                "AreaEngName": "Xinyi Dist."
            },
            {
                "ZipCode": "111",
                "Name": "士林區",
                "AreaEngName": "Shilin Dist."
            },
            {
                "ZipCode": "112",
                "Name": "北投區",
                "AreaEngName": "Beitou Dist."
            },
            {
                "ZipCode": "114",
                "Name": "內湖區",
                "AreaEngName": "Neihu Dist."
            },
            {
                "ZipCode": "115",
                "Name": "南港區",
                "AreaEngName": "Nangang Dist."
            },
            {
                "ZipCode": "116",
                "Name": "文山區",
                "AreaEngName": "Wenshan Dist."
            }
        ]
    },
    {
        "Name": "基隆市",
        "CityEngName": "Keelung City",
        "AreaList": [
            {
                "ZipCode": "200",
                "Name": "仁愛區",
                "AreaEngName": "Ren’ai Dist."
            },
            {
                "ZipCode": "201",
                "Name": "信義區",
                "AreaEngName": "Xinyi Dist."
            },
            {
                "ZipCode": "202",
                "Name": "中正區",
                "AreaEngName": "Zhongzheng Dist."
            },
            {
                "ZipCode": "203",
                "Name": "中山區",
                "AreaEngName": "Zhongshan Dist."
            },
            {
                "ZipCode": "204",
                "Name": "安樂區",
                "AreaEngName": "Anle Dist."
            },
            {
                "ZipCode": "205",
                "Name": "暖暖區",
                "AreaEngName": "Nuannuan Dist."
            },
            {
                "ZipCode": "206",
                "Name": "七堵區",
                "AreaEngName": "Qidu Dist."
            }
        ]
    },
    {
        "Name": "新北市",
        "CityEngName": "New Taipei City",
        "AreaList": [
            {
                "ZipCode": "207",
                "Name": "萬里區",
                "AreaEngName": "Wanli Dist."
            },
            {
                "ZipCode": "208",
                "Name": "金山區",
                "AreaEngName": "Jinshan Dist."
            },
            {
                "ZipCode": "220",
                "Name": "板橋區",
                "AreaEngName": "Banqiao Dist."
            },
            {
                "ZipCode": "221",
                "Name": "汐止區",
                "AreaEngName": "Xizhi Dist."
            },
            {
                "ZipCode": "222",
                "Name": "深坑區",
                "AreaEngName": "Shenkeng Dist."
            },
            {
                "ZipCode": "223",
                "Name": "石碇區",
                "AreaEngName": "Shiding Dist."
            },
            {
                "ZipCode": "224",
                "Name": "瑞芳區",
                "AreaEngName": "Ruifang Dist."
            },
            {
                "ZipCode": "226",
                "Name": "平溪區",
                "AreaEngName": "Pingxi Dist."
            },
            {
                "ZipCode": "227",
                "Name": "雙溪區",
                "AreaEngName": "Shuangxi Dist."
            },
            {
                "ZipCode": "228",
                "Name": "貢寮區",
                "AreaEngName": "Gongliao Dist."
            },
            {
                "ZipCode": "231",
                "Name": "新店區",
                "AreaEngName": "Xindian Dist."
            },
            {
                "ZipCode": "232",
                "Name": "坪林區",
                "AreaEngName": "Pinglin Dist."
            },
            {
                "ZipCode": "233",
                "Name": "烏來區",
                "AreaEngName": "Wulai Dist."
            },
            {
                "ZipCode": "234",
                "Name": "永和區",
                "AreaEngName": "Yonghe Dist."
            },
            {
                "ZipCode": "235",
                "Name": "中和區",
                "AreaEngName": "Zhonghe Dist."
            },
            {
                "ZipCode": "236",
                "Name": "土城區",
                "AreaEngName": "Tucheng Dist."
            },
            {
                "ZipCode": "237",
                "Name": "三峽區",
                "AreaEngName": "Sanxia Dist."
            },
            {
                "ZipCode": "238",
                "Name": "樹林區",
                "AreaEngName": "Shulin Dist."
            },
            {
                "ZipCode": "239",
                "Name": "鶯歌區",
                "AreaEngName": "Yingge Dist."
            },
            {
                "ZipCode": "241",
                "Name": "三重區",
                "AreaEngName": "Sanchong Dist."
            },
            {
                "ZipCode": "242",
                "Name": "新莊區",
                "AreaEngName": "Xinzhuang Dist."
            },
            {
                "ZipCode": "243",
                "Name": "泰山區",
                "AreaEngName": "Taishan Dist."
            },
            {
                "ZipCode": "244",
                "Name": "林口區",
                "AreaEngName": "Linkou Dist."
            },
            {
                "ZipCode": "247",
                "Name": "蘆洲區",
                "AreaEngName": "Luzhou Dist."
            },
            {
                "ZipCode": "248",
                "Name": "五股區",
                "AreaEngName": "Wugu Dist."
            },
            {
                "ZipCode": "249",
                "Name": "八里區",
                "AreaEngName": "Bali Dist."
            },
            {
                "ZipCode": "251",
                "Name": "淡水區",
                "AreaEngName": "Tamsui Dist."
            },
            {
                "ZipCode": "252",
                "Name": "三芝區",
                "AreaEngName": "Sanzhi Dist."
            },
            {
                "ZipCode": "253",
                "Name": "石門區",
                "AreaEngName": "Shimen Dist."
            }
        ]
    },
    {
        "Name": "連江縣",
        "CityEngName": "Lienchiang County",
        "AreaList": [
            {
                "ZipCode": "209",
                "Name": "南竿鄉",
                "AreaEngName": "Nangan Township"
            },
            {
                "ZipCode": "210",
                "Name": "北竿鄉",
                "AreaEngName": "Beigan Township"
            },
            {
                "ZipCode": "211",
                "Name": "莒光鄉",
                "AreaEngName": "Juguang Township"
            },
            {
                "ZipCode": "212",
                "Name": "東引鄉",
                "AreaEngName": "Dongyin Township"
            }
        ]
    },
    {
        "Name": "宜蘭縣",
        "CityEngName": "Yilan County",
        "AreaList": [
            {
                "ZipCode": "260",
                "Name": "宜蘭市",
                "AreaEngName": "Yilan City"
            },
            {
                "ZipCode": "263",
                "Name": "壯圍鄉",
                "AreaEngName": "Zhuangwei Township"
            },
            {
                "ZipCode": "261",
                "Name": "頭城鎮",
                "AreaEngName": "Toucheng Township"
            },
            {
                "ZipCode": "262",
                "Name": "礁溪鄉",
                "AreaEngName": "Jiaoxi Township"
            },
            {
                "ZipCode": "264",
                "Name": "員山鄉",
                "AreaEngName": "Yuanshan Township"
            },
            {
                "ZipCode": "265",
                "Name": "羅東鎮",
                "AreaEngName": "Luodong Township"
            },
            {
                "ZipCode": "266",
                "Name": "三星鄉",
                "AreaEngName": "Sanxing Township"
            },
            {
                "ZipCode": "267",
                "Name": "大同鄉",
                "AreaEngName": "Datong Township"
            },
            {
                "ZipCode": "268",
                "Name": "五結鄉",
                "AreaEngName": "Wujie Township"
            },
            {
                "ZipCode": "269",
                "Name": "冬山鄉",
                "AreaEngName": "Dongshan Township"
            },
            {
                "ZipCode": "270",
                "Name": "蘇澳鎮",
                "AreaEngName": "Su’ao Township"
            },
            {
                "ZipCode": "272",
                "Name": "南澳鄉",
                "AreaEngName": "Nan’ao Township"
            },
            {
                "ZipCode": "290",
                "Name": "釣魚臺",
                "AreaEngName": "Diaoyutai"
            }
        ]
    },
    {
        "Name": "釣魚臺",
        "CityEngName": "Diauyutai",
        "AreaList": [
            {
                "ZipCode": "290",
                "Name": "釣魚臺",
                "AreaEngName": "Diaoyutai"
            }
        ]
    },
    {
        "Name": "新竹市",
        "CityEngName": "Hsinchu City",
        "AreaList": [
            {
                "ZipCode": "300",
                "Name": "東區",
                "AreaEngName": "East Dist."
            },
            {
                "ZipCode": "300",
                "Name": "北區",
                "AreaEngName": "North Dist."
            },
            {
                "ZipCode": "300",
                "Name": "香山區",
                "AreaEngName": "Xiangshan Dist."
            }
        ]
    },
    {
        "Name": "新竹縣",
        "CityEngName": "Hsinchu County",
        "AreaList": [
            {
                "ZipCode": "308",
                "Name": "寶山鄉",
                "AreaEngName": "Baoshan Township"
            },
            {
                "ZipCode": "302",
                "Name": "竹北市",
                "AreaEngName": "Zhubei City"
            },
            {
                "ZipCode": "303",
                "Name": "湖口鄉",
                "AreaEngName": "Hukou Township"
            },
            {
                "ZipCode": "304",
                "Name": "新豐鄉",
                "AreaEngName": "Xinfeng Township"
            },
            {
                "ZipCode": "305",
                "Name": "新埔鎮",
                "AreaEngName": "Xinpu Township"
            },
            {
                "ZipCode": "306",
                "Name": "關西鎮",
                "AreaEngName": "Guanxi Township"
            },
            {
                "ZipCode": "307",
                "Name": "芎林鄉",
                "AreaEngName": "Qionglin Township"
            },
            {
                "ZipCode": "310",
                "Name": "竹東鎮",
                "AreaEngName": "Zhudong Township"
            },
            {
                "ZipCode": "311",
                "Name": "五峰鄉",
                "AreaEngName": "Wufeng Township"
            },
            {
                "ZipCode": "312",
                "Name": "橫山鄉",
                "AreaEngName": "Hengshan Township"
            },
            {
                "ZipCode": "313",
                "Name": "尖石鄉",
                "AreaEngName": "Jianshi Township"
            },
            {
                "ZipCode": "314",
                "Name": "北埔鄉",
                "AreaEngName": "Beipu Township"
            },
            {
                "ZipCode": "315",
                "Name": "峨眉鄉",
                "AreaEngName": "Emei Township"
            }
        ]
    },
    {
        "Name": "桃園市",
        "CityEngName": "Taoyuan City",
        "AreaList": [
            {
                "ZipCode": "320",
                "Name": "中壢區",
                "AreaEngName": "Zhongli Dist."
            },
            {
                "ZipCode": "324",
                "Name": "平鎮區",
                "AreaEngName": "Pingzhen Dist."
            },
            {
                "ZipCode": "325",
                "Name": "龍潭區",
                "AreaEngName": "Longtan Dist."
            },
            {
                "ZipCode": "326",
                "Name": "楊梅區",
                "AreaEngName": "Yangmei Dist."
            },
            {
                "ZipCode": "327",
                "Name": "新屋區",
                "AreaEngName": "Xinwu Dist."
            },
            {
                "ZipCode": "328",
                "Name": "觀音區",
                "AreaEngName": "Guanyin Dist."
            },
            {
                "ZipCode": "330",
                "Name": "桃園區",
                "AreaEngName": "Taoyuan Dist."
            },
            {
                "ZipCode": "333",
                "Name": "龜山區",
                "AreaEngName": "Guishan Dist."
            },
            {
                "ZipCode": "334",
                "Name": "八德區",
                "AreaEngName": "Bade Dist."
            },
            {
                "ZipCode": "335",
                "Name": "大溪區",
                "AreaEngName": "Daxi Dist."
            },
            {
                "ZipCode": "336",
                "Name": "復興區",
                "AreaEngName": "Fuxing Dist."
            },
            {
                "ZipCode": "337",
                "Name": "大園區",
                "AreaEngName": "Dayuan Dist."
            },
            {
                "ZipCode": "338",
                "Name": "蘆竹區",
                "AreaEngName": "Luzhu Dist."
            }
        ]
    },
    {
        "Name": "苗栗縣",
        "CityEngName": "Miaoli County",
        "AreaList": [
            {
                "ZipCode": "350",
                "Name": "竹南鎮",
                "AreaEngName": "Zhunan Township"
            },
            {
                "ZipCode": "351",
                "Name": "頭份市",
                "AreaEngName": "Toufen City"
            },
            {
                "ZipCode": "352",
                "Name": "三灣鄉",
                "AreaEngName": "Sanwan Township"
            },
            {
                "ZipCode": "353",
                "Name": "南庄鄉",
                "AreaEngName": "Nanzhuang Township"
            },
            {
                "ZipCode": "354",
                "Name": "獅潭鄉",
                "AreaEngName": "Shitan Township"
            },
            {
                "ZipCode": "356",
                "Name": "後龍鎮",
                "AreaEngName": "Houlong Township"
            },
            {
                "ZipCode": "357",
                "Name": "通霄鎮",
                "AreaEngName": "Tongxiao Township"
            },
            {
                "ZipCode": "358",
                "Name": "苑裡鎮",
                "AreaEngName": "Yuanli Township"
            },
            {
                "ZipCode": "360",
                "Name": "苗栗市",
                "AreaEngName": "Miaoli City"
            },
            {
                "ZipCode": "361",
                "Name": "造橋鄉",
                "AreaEngName": "Zaoqiao Township"
            },
            {
                "ZipCode": "362",
                "Name": "頭屋鄉",
                "AreaEngName": "Touwu Township"
            },
            {
                "ZipCode": "363",
                "Name": "公館鄉",
                "AreaEngName": "Gongguan Township"
            },
            {
                "ZipCode": "364",
                "Name": "大湖鄉",
                "AreaEngName": "Dahu Township"
            },
            {
                "ZipCode": "365",
                "Name": "泰安鄉",
                "AreaEngName": "Tai’an Township"
            },
            {
                "ZipCode": "366",
                "Name": "銅鑼鄉",
                "AreaEngName": "Tongluo Township"
            },
            {
                "ZipCode": "367",
                "Name": "三義鄉",
                "AreaEngName": "Sanyi Township"
            },
            {
                "ZipCode": "368",
                "Name": "西湖鄉",
                "AreaEngName": "Xihu Township"
            },
            {
                "ZipCode": "369",
                "Name": "卓蘭鎮",
                "AreaEngName": "Zhuolan Township"
            }
        ]
    },
    {
        "Name": "臺中市",
        "CityEngName": "Taichung City",
        "AreaList": [
            {
                "ZipCode": "400",
                "Name": "中區",
                "AreaEngName": "Central Dist."
            },
            {
                "ZipCode": "401",
                "Name": "東區",
                "AreaEngName": "East Dist."
            },
            {
                "ZipCode": "402",
                "Name": "南區",
                "AreaEngName": "South Dist."
            },
            {
                "ZipCode": "403",
                "Name": "西區",
                "AreaEngName": "West Dist."
            },
            {
                "ZipCode": "404",
                "Name": "北區",
                "AreaEngName": "North Dist."
            },
            {
                "ZipCode": "406",
                "Name": "北屯區",
                "AreaEngName": "Beitun Dist."
            },
            {
                "ZipCode": "407",
                "Name": "西屯區",
                "AreaEngName": "Xitun Dist."
            },
            {
                "ZipCode": "408",
                "Name": "南屯區",
                "AreaEngName": "Nantun Dist."
            },
            {
                "ZipCode": "411",
                "Name": "太平區",
                "AreaEngName": "Taiping Dist."
            },
            {
                "ZipCode": "412",
                "Name": "大里區",
                "AreaEngName": "Dali Dist."
            },
            {
                "ZipCode": "413",
                "Name": "霧峰區",
                "AreaEngName": "Wufeng Dist."
            },
            {
                "ZipCode": "414",
                "Name": "烏日區",
                "AreaEngName": "Wuri Dist."
            },
            {
                "ZipCode": "420",
                "Name": "豐原區",
                "AreaEngName": "Fengyuan Dist."
            },
            {
                "ZipCode": "421",
                "Name": "后里區",
                "AreaEngName": "Houli Dist."
            },
            {
                "ZipCode": "422",
                "Name": "石岡區",
                "AreaEngName": "Shigang Dist."
            },
            {
                "ZipCode": "423",
                "Name": "東勢區",
                "AreaEngName": "Dongshi Dist."
            },
            {
                "ZipCode": "424",
                "Name": "和平區",
                "AreaEngName": "Heping Dist."
            },
            {
                "ZipCode": "426",
                "Name": "新社區",
                "AreaEngName": "Xinshe Dist."
            },
            {
                "ZipCode": "427",
                "Name": "潭子區",
                "AreaEngName": "Tanzi Dist."
            },
            {
                "ZipCode": "428",
                "Name": "大雅區",
                "AreaEngName": "Daya Dist."
            },
            {
                "ZipCode": "429",
                "Name": "神岡區",
                "AreaEngName": "Shengang Dist."
            },
            {
                "ZipCode": "432",
                "Name": "大肚區",
                "AreaEngName": "Dadu Dist."
            },
            {
                "ZipCode": "433",
                "Name": "沙鹿區",
                "AreaEngName": "Shalu Dist."
            },
            {
                "ZipCode": "434",
                "Name": "龍井區",
                "AreaEngName": "Longjing Dist."
            },
            {
                "ZipCode": "435",
                "Name": "梧棲區",
                "AreaEngName": "Wuqi Dist."
            },
            {
                "ZipCode": "436",
                "Name": "清水區",
                "AreaEngName": "Qingshui Dist."
            },
            {
                "ZipCode": "437",
                "Name": "大甲區",
                "AreaEngName": "Dajia Dist."
            },
            {
                "ZipCode": "438",
                "Name": "外埔區",
                "AreaEngName": "Waipu Dist."
            },
            {
                "ZipCode": "439",
                "Name": "大安區",
                "AreaEngName": "Da’an Dist."
            }
        ]
    },
    {
        "Name": "彰化縣",
        "CityEngName": "Changhua County",
        "AreaList": [
            {
                "ZipCode": "500",
                "Name": "彰化市",
                "AreaEngName": "Changhua City"
            },
            {
                "ZipCode": "502",
                "Name": "芬園鄉",
                "AreaEngName": "Fenyuan Township"
            },
            {
                "ZipCode": "503",
                "Name": "花壇鄉",
                "AreaEngName": "Huatan Township"
            },
            {
                "ZipCode": "504",
                "Name": "秀水鄉",
                "AreaEngName": "Xiushui Township"
            },
            {
                "ZipCode": "505",
                "Name": "鹿港鎮",
                "AreaEngName": "Lukang Township"
            },
            {
                "ZipCode": "506",
                "Name": "福興鄉",
                "AreaEngName": "Fuxing Township"
            },
            {
                "ZipCode": "507",
                "Name": "線西鄉",
                "AreaEngName": "Xianxi Township"
            },
            {
                "ZipCode": "508",
                "Name": "和美鎮",
                "AreaEngName": "Hemei Township"
            },
            {
                "ZipCode": "509",
                "Name": "伸港鄉",
                "AreaEngName": "Shengang Township"
            },
            {
                "ZipCode": "510",
                "Name": "員林市",
                "AreaEngName": "Yuanlin City"
            },
            {
                "ZipCode": "511",
                "Name": "社頭鄉",
                "AreaEngName": "Shetou Township"
            },
            {
                "ZipCode": "512",
                "Name": "永靖鄉",
                "AreaEngName": "Yongjing Township"
            },
            {
                "ZipCode": "513",
                "Name": "埔心鄉",
                "AreaEngName": "Puxin Township"
            },
            {
                "ZipCode": "514",
                "Name": "溪湖鎮",
                "AreaEngName": "Xihu Township"
            },
            {
                "ZipCode": "515",
                "Name": "大村鄉",
                "AreaEngName": "Dacun Township"
            },
            {
                "ZipCode": "516",
                "Name": "埔鹽鄉",
                "AreaEngName": "Puyan Township"
            },
            {
                "ZipCode": "520",
                "Name": "田中鎮",
                "AreaEngName": "Tianzhong Township"
            },
            {
                "ZipCode": "521",
                "Name": "北斗鎮",
                "AreaEngName": "Beidou Township"
            },
            {
                "ZipCode": "522",
                "Name": "田尾鄉",
                "AreaEngName": "Tianwei Township"
            },
            {
                "ZipCode": "523",
                "Name": "埤頭鄉",
                "AreaEngName": "Pitou Township"
            },
            {
                "ZipCode": "524",
                "Name": "溪州鄉",
                "AreaEngName": "Xizhou Township"
            },
            {
                "ZipCode": "525",
                "Name": "竹塘鄉",
                "AreaEngName": "Zhutang Township"
            },
            {
                "ZipCode": "526",
                "Name": "二林鎮",
                "AreaEngName": "Erlin Township"
            },
            {
                "ZipCode": "527",
                "Name": "大城鄉",
                "AreaEngName": "Dacheng Township"
            },
            {
                "ZipCode": "528",
                "Name": "芳苑鄉",
                "AreaEngName": "Fangyuan Township"
            },
            {
                "ZipCode": "530",
                "Name": "二水鄉",
                "AreaEngName": "Ershui Township"
            }
        ]
    },
    {
        "Name": "南投縣",
        "CityEngName": "Nantou County",
        "AreaList": [
            {
                "ZipCode": "540",
                "Name": "南投市",
                "AreaEngName": "Nantou City"
            },
            {
                "ZipCode": "541",
                "Name": "中寮鄉",
                "AreaEngName": "Zhongliao Township"
            },
            {
                "ZipCode": "542",
                "Name": "草屯鎮",
                "AreaEngName": "Caotun Township"
            },
            {
                "ZipCode": "544",
                "Name": "國姓鄉",
                "AreaEngName": "Guoxing Township"
            },
            {
                "ZipCode": "545",
                "Name": "埔里鎮",
                "AreaEngName": "Puli Township"
            },
            {
                "ZipCode": "546",
                "Name": "仁愛鄉",
                "AreaEngName": "Ren’ai Township"
            },
            {
                "ZipCode": "551",
                "Name": "名間鄉",
                "AreaEngName": "Mingjian Township"
            },
            {
                "ZipCode": "552",
                "Name": "集集鎮",
                "AreaEngName": "Jiji Township"
            },
            {
                "ZipCode": "553",
                "Name": "水里鄉",
                "AreaEngName": "Shuili Township"
            },
            {
                "ZipCode": "555",
                "Name": "魚池鄉",
                "AreaEngName": "Yuchi Township"
            },
            {
                "ZipCode": "556",
                "Name": "信義鄉",
                "AreaEngName": "Xinyi Township"
            },
            {
                "ZipCode": "557",
                "Name": "竹山鎮",
                "AreaEngName": "Zhushan Township"
            },
            {
                "ZipCode": "558",
                "Name": "鹿谷鄉",
                "AreaEngName": "Lugu Township"
            }
        ]
    },
    {
        "Name": "嘉義市",
        "CityEngName": "Chiayi City",
        "AreaList": [
            {
                "ZipCode": "600",
                "Name": "西區",
                "AreaEngName": "West Dist."
            },
            {
                "ZipCode": "600",
                "Name": "東區",
                "AreaEngName": "East Dist."
            }
        ]
    },
    {
        "Name": "嘉義縣",
        "CityEngName": "Chiayi County",
        "AreaList": [
            {
                "ZipCode": "602",
                "Name": "番路鄉",
                "AreaEngName": "Fanlu Township"
            },
            {
                "ZipCode": "603",
                "Name": "梅山鄉",
                "AreaEngName": "Meishan Township"
            },
            {
                "ZipCode": "604",
                "Name": "竹崎鄉",
                "AreaEngName": "Zhuqi Township"
            },
            {
                "ZipCode": "605",
                "Name": "阿里山鄉",
                "AreaEngName": "Alishan Township"
            },
            {
                "ZipCode": "606",
                "Name": "中埔鄉",
                "AreaEngName": "Zhongpu Township"
            },
            {
                "ZipCode": "607",
                "Name": "大埔鄉",
                "AreaEngName": "Dapu Township"
            },
            {
                "ZipCode": "608",
                "Name": "水上鄉",
                "AreaEngName": "Shuishang Township"
            },
            {
                "ZipCode": "611",
                "Name": "鹿草鄉",
                "AreaEngName": "Lucao Township"
            },
            {
                "ZipCode": "612",
                "Name": "太保市",
                "AreaEngName": "Taibao City"
            },
            {
                "ZipCode": "613",
                "Name": "朴子市",
                "AreaEngName": "Puzi City"
            },
            {
                "ZipCode": "614",
                "Name": "東石鄉",
                "AreaEngName": "Dongshi Township"
            },
            {
                "ZipCode": "615",
                "Name": "六腳鄉",
                "AreaEngName": "Liujiao Township"
            },
            {
                "ZipCode": "616",
                "Name": "新港鄉",
                "AreaEngName": "Xingang Township"
            },
            {
                "ZipCode": "621",
                "Name": "民雄鄉",
                "AreaEngName": "Minxiong Township"
            },
            {
                "ZipCode": "622",
                "Name": "大林鎮",
                "AreaEngName": "Dalin Township"
            },
            {
                "ZipCode": "623",
                "Name": "溪口鄉",
                "AreaEngName": "Xikou Township"
            },
            {
                "ZipCode": "624",
                "Name": "義竹鄉",
                "AreaEngName": "Yizhu Township"
            },
            {
                "ZipCode": "625",
                "Name": "布袋鎮",
                "AreaEngName": "Budai Township"
            }
        ]
    },
    {
        "Name": "雲林縣",
        "CityEngName": "Yunlin County",
        "AreaList": [
            {
                "ZipCode": "630",
                "Name": "斗南鎮",
                "AreaEngName": "Dounan Township"
            },
            {
                "ZipCode": "631",
                "Name": "大埤鄉",
                "AreaEngName": "Dapi Township"
            },
            {
                "ZipCode": "632",
                "Name": "虎尾鎮",
                "AreaEngName": "Huwei Township"
            },
            {
                "ZipCode": "633",
                "Name": "土庫鎮",
                "AreaEngName": "Tuku Township"
            },
            {
                "ZipCode": "634",
                "Name": "褒忠鄉",
                "AreaEngName": "Baozhong Township"
            },
            {
                "ZipCode": "635",
                "Name": "東勢鄉",
                "AreaEngName": "Dongshi Township"
            },
            {
                "ZipCode": "636",
                "Name": "臺西鄉",
                "AreaEngName": "Taixi Township"
            },
            {
                "ZipCode": "637",
                "Name": "崙背鄉",
                "AreaEngName": "Lunbei Township"
            },
            {
                "ZipCode": "638",
                "Name": "麥寮鄉",
                "AreaEngName": "Mailiao Township"
            },
            {
                "ZipCode": "640",
                "Name": "斗六市",
                "AreaEngName": "Douliu City"
            },
            {
                "ZipCode": "643",
                "Name": "林內鄉",
                "AreaEngName": "Linnei Township"
            },
            {
                "ZipCode": "646",
                "Name": "古坑鄉",
                "AreaEngName": "Gukeng Township"
            },
            {
                "ZipCode": "647",
                "Name": "莿桐鄉",
                "AreaEngName": "Citong Township"
            },
            {
                "ZipCode": "648",
                "Name": "西螺鎮",
                "AreaEngName": "Xiluo Township"
            },
            {
                "ZipCode": "649",
                "Name": "二崙鄉",
                "AreaEngName": "Erlun Township"
            },
            {
                "ZipCode": "651",
                "Name": "北港鎮",
                "AreaEngName": "Beigang Township"
            },
            {
                "ZipCode": "652",
                "Name": "水林鄉",
                "AreaEngName": "Shuilin Township"
            },
            {
                "ZipCode": "653",
                "Name": "口湖鄉",
                "AreaEngName": "Kouhu Township"
            },
            {
                "ZipCode": "654",
                "Name": "四湖鄉",
                "AreaEngName": "Sihu Township"
            },
            {
                "ZipCode": "655",
                "Name": "元長鄉",
                "AreaEngName": "Yuanchang Township"
            }
        ]
    },
    {
        "Name": "臺南市",
        "CityEngName": "Tainan City",
        "AreaList": [
            {
                "ZipCode": "700",
                "Name": "中西區",
                "AreaEngName": "West Central Dist."
            },
            {
                "ZipCode": "701",
                "Name": "東區",
                "AreaEngName": "East Dist."
            },
            {
                "ZipCode": "702",
                "Name": "南區",
                "AreaEngName": "South Dist."
            },
            {
                "ZipCode": "704",
                "Name": "北區",
                "AreaEngName": "North Dist."
            },
            {
                "ZipCode": "708",
                "Name": "安平區",
                "AreaEngName": "Anping Dist."
            },
            {
                "ZipCode": "709",
                "Name": "安南區",
                "AreaEngName": "Annan Dist."
            },
            {
                "ZipCode": "710",
                "Name": "永康區",
                "AreaEngName": "Yongkang Dist."
            },
            {
                "ZipCode": "711",
                "Name": "歸仁區",
                "AreaEngName": "Guiren Dist."
            },
            {
                "ZipCode": "712",
                "Name": "新化區",
                "AreaEngName": "Xinhua Dist."
            },
            {
                "ZipCode": "713",
                "Name": "左鎮區",
                "AreaEngName": "Zuozhen Dist."
            },
            {
                "ZipCode": "714",
                "Name": "玉井區",
                "AreaEngName": "Yujing Dist."
            },
            {
                "ZipCode": "715",
                "Name": "楠西區",
                "AreaEngName": "Nanxi Dist."
            },
            {
                "ZipCode": "716",
                "Name": "南化區",
                "AreaEngName": "Nanhua Dist."
            },
            {
                "ZipCode": "717",
                "Name": "仁德區",
                "AreaEngName": "Rende Dist."
            },
            {
                "ZipCode": "718",
                "Name": "關廟區",
                "AreaEngName": "Guanmiao Dist."
            },
            {
                "ZipCode": "719",
                "Name": "龍崎區",
                "AreaEngName": "Longqi Dist."
            },
            {
                "ZipCode": "720",
                "Name": "官田區",
                "AreaEngName": "Guantian Dist."
            },
            {
                "ZipCode": "721",
                "Name": "麻豆區",
                "AreaEngName": "Madou Dist."
            },
            {
                "ZipCode": "722",
                "Name": "佳里區",
                "AreaEngName": "Jiali Dist."
            },
            {
                "ZipCode": "723",
                "Name": "西港區",
                "AreaEngName": "Xigang Dist."
            },
            {
                "ZipCode": "724",
                "Name": "七股區",
                "AreaEngName": "Qigu Dist."
            },
            {
                "ZipCode": "725",
                "Name": "將軍區",
                "AreaEngName": "Jiangjun Dist."
            },
            {
                "ZipCode": "726",
                "Name": "學甲區",
                "AreaEngName": "Xuejia Dist."
            },
            {
                "ZipCode": "727",
                "Name": "北門區",
                "AreaEngName": "Beimen Dist."
            },
            {
                "ZipCode": "730",
                "Name": "新營區",
                "AreaEngName": "Xinying Dist."
            },
            {
                "ZipCode": "731",
                "Name": "後壁區",
                "AreaEngName": "Houbi Dist."
            },
            {
                "ZipCode": "732",
                "Name": "白河區",
                "AreaEngName": "Baihe Dist."
            },
            {
                "ZipCode": "733",
                "Name": "東山區",
                "AreaEngName": "Dongshan Dist."
            },
            {
                "ZipCode": "734",
                "Name": "六甲區",
                "AreaEngName": "Liujia Dist."
            },
            {
                "ZipCode": "735",
                "Name": "下營區",
                "AreaEngName": "Xiaying Dist."
            },
            {
                "ZipCode": "736",
                "Name": "柳營區",
                "AreaEngName": "Liuying Dist."
            },
            {
                "ZipCode": "737",
                "Name": "鹽水區",
                "AreaEngName": "Yanshui Dist."
            },
            {
                "ZipCode": "741",
                "Name": "善化區",
                "AreaEngName": "Shanhua Dist."
            },
            {
                "ZipCode": "744",
                "Name": "新市區",
                "AreaEngName": "Xinshi Dist."
            },
            {
                "ZipCode": "742",
                "Name": "大內區",
                "AreaEngName": "Danei Dist."
            },
            {
                "ZipCode": "743",
                "Name": "山上區",
                "AreaEngName": "Shanshang Dist."
            },
            {
                "ZipCode": "745",
                "Name": "安定區",
                "AreaEngName": "Anding Dist."
            }
        ]
    },
    {
        "Name": "高雄市",
        "CityEngName": "Kaohsiung City",
        "AreaList": [
            {
                "ZipCode": "800",
                "Name": "新興區",
                "AreaEngName": "Xinxing Dist."
            },
            {
                "ZipCode": "801",
                "Name": "前金區",
                "AreaEngName": "Qianjin Dist."
            },
            {
                "ZipCode": "802",
                "Name": "苓雅區",
                "AreaEngName": "Lingya Dist."
            },
            {
                "ZipCode": "803",
                "Name": "鹽埕區",
                "AreaEngName": "Yancheng Dist."
            },
            {
                "ZipCode": "804",
                "Name": "鼓山區",
                "AreaEngName": "Gushan Dist."
            },
            {
                "ZipCode": "805",
                "Name": "旗津區",
                "AreaEngName": "Qijin Dist."
            },
            {
                "ZipCode": "806",
                "Name": "前鎮區",
                "AreaEngName": "Qianzhen Dist."
            },
            {
                "ZipCode": "807",
                "Name": "三民區",
                "AreaEngName": "Sanmin Dist."
            },
            {
                "ZipCode": "811",
                "Name": "楠梓區",
                "AreaEngName": "Nanzi Dist."
            },
            {
                "ZipCode": "812",
                "Name": "小港區",
                "AreaEngName": "Xiaogang Dist."
            },
            {
                "ZipCode": "813",
                "Name": "左營區",
                "AreaEngName": "Zuoying Dist."
            },
            {
                "ZipCode": "814",
                "Name": "仁武區",
                "AreaEngName": "Renwu Dist."
            },
            {
                "ZipCode": "815",
                "Name": "大社區",
                "AreaEngName": "Dashe Dist."
            },
            {
                "ZipCode": "817",
                "Name": "東沙群島",
                "AreaEngName": "Dongsha Islands"
            },
            {
                "ZipCode": "819",
                "Name": "南沙群島",
                "AreaEngName": "Nansha Islands"
            },
            {
                "ZipCode": "820",
                "Name": "岡山區",
                "AreaEngName": "Gangshan Dist."
            },
            {
                "ZipCode": "821",
                "Name": "路竹區",
                "AreaEngName": "Luzhu Dist."
            },
            {
                "ZipCode": "822",
                "Name": "阿蓮區",
                "AreaEngName": "Alian Dist."
            },
            {
                "ZipCode": "823",
                "Name": "田寮區",
                "AreaEngName": "Tianliao Dist."
            },
            {
                "ZipCode": "824",
                "Name": "燕巢區",
                "AreaEngName": "Yanchao Dist."
            },
            {
                "ZipCode": "825",
                "Name": "橋頭區",
                "AreaEngName": "Qiaotou Dist."
            },
            {
                "ZipCode": "826",
                "Name": "梓官區",
                "AreaEngName": "Ziguan Dist."
            },
            {
                "ZipCode": "827",
                "Name": "彌陀區",
                "AreaEngName": "Mituo Dist."
            },
            {
                "ZipCode": "828",
                "Name": "永安區",
                "AreaEngName": "Yong’an Dist."
            },
            {
                "ZipCode": "829",
                "Name": "湖內區",
                "AreaEngName": "Hunei Dist."
            },
            {
                "ZipCode": "830",
                "Name": "鳳山區",
                "AreaEngName": "Fengshan Dist."
            },
            {
                "ZipCode": "831",
                "Name": "大寮區",
                "AreaEngName": "Daliao Dist."
            },
            {
                "ZipCode": "832",
                "Name": "林園區",
                "AreaEngName": "Linyuan Dist."
            },
            {
                "ZipCode": "833",
                "Name": "鳥松區",
                "AreaEngName": "Niaosong Dist."
            },
            {
                "ZipCode": "840",
                "Name": "大樹區",
                "AreaEngName": "Dashu Dist."
            },
            {
                "ZipCode": "842",
                "Name": "旗山區",
                "AreaEngName": "Qishan Dist."
            },
            {
                "ZipCode": "843",
                "Name": "美濃區",
                "AreaEngName": "Meinong Dist."
            },
            {
                "ZipCode": "844",
                "Name": "六龜區",
                "AreaEngName": "Liugui Dist."
            },
            {
                "ZipCode": "845",
                "Name": "內門區",
                "AreaEngName": "Neimen Dist."
            },
            {
                "ZipCode": "846",
                "Name": "杉林區",
                "AreaEngName": "Shanlin Dist."
            },
            {
                "ZipCode": "847",
                "Name": "甲仙區",
                "AreaEngName": "Jiaxian Dist."
            },
            {
                "ZipCode": "848",
                "Name": "桃源區",
                "AreaEngName": "Taoyuan Dist."
            },
            {
                "ZipCode": "849",
                "Name": "那瑪夏區",
                "AreaEngName": "Namaxia Dist."
            },
            {
                "ZipCode": "851",
                "Name": "茂林區",
                "AreaEngName": "Maolin Dist."
            },
            {
                "ZipCode": "852",
                "Name": "茄萣區",
                "AreaEngName": "Qieding Dist."
            }
        ]
    },
    {
        "Name": "南海島",
        "CityEngName": "Nanhai",
        "AreaList": [
            {
                "ZipCode": "817",
                "Name": "東沙群島",
                "AreaEngName": "Dongsha Islands"
            },
            {
                "ZipCode": "819",
                "Name": "南沙群島",
                "AreaEngName": "Nansha Islands"
            }
        ]
    },
    {
        "Name": "澎湖縣",
        "CityEngName": "Penghu County",
        "AreaList": [
            {
                "ZipCode": "880",
                "Name": "馬公市",
                "AreaEngName": "Magong City"
            },
            {
                "ZipCode": "881",
                "Name": "西嶼鄉",
                "AreaEngName": "Xiyu Township"
            },
            {
                "ZipCode": "882",
                "Name": "望安鄉",
                "AreaEngName": "Wang’an Township"
            },
            {
                "ZipCode": "883",
                "Name": "七美鄉",
                "AreaEngName": "Qimei Township"
            },
            {
                "ZipCode": "884",
                "Name": "白沙鄉",
                "AreaEngName": "Baisha Township"
            },
            {
                "ZipCode": "885",
                "Name": "湖西鄉",
                "AreaEngName": "Huxi Township"
            }
        ]
    },
    {
        "Name": "金門縣",
        "CityEngName": "Kinmen County",
        "AreaList": [
            {
                "ZipCode": "890",
                "Name": "金沙鎮",
                "AreaEngName": "Jinsha Township"
            },
            {
                "ZipCode": "891",
                "Name": "金湖鎮",
                "AreaEngName": "Jinhu Township"
            },
            {
                "ZipCode": "892",
                "Name": "金寧鄉",
                "AreaEngName": "Jinning Township"
            },
            {
                "ZipCode": "893",
                "Name": "金城鎮",
                "AreaEngName": "Jincheng Township"
            },
            {
                "ZipCode": "894",
                "Name": "烈嶼鄉",
                "AreaEngName": "Lieyu Township"
            },
            {
                "ZipCode": "896",
                "Name": "烏坵鄉",
                "AreaEngName": "Wuqiu Township"
            }
        ]
    },
    {
        "Name": "屏東縣",
        "CityEngName": "Pingtung County",
        "AreaList": [
            {
                "ZipCode": "900",
                "Name": "屏東市",
                "AreaEngName": "Pingtung City"
            },
            {
                "ZipCode": "901",
                "Name": "三地門鄉",
                "AreaEngName": "Sandimen Township"
            },
            {
                "ZipCode": "902",
                "Name": "霧臺鄉",
                "AreaEngName": "Wutai Township"
            },
            {
                "ZipCode": "903",
                "Name": "瑪家鄉",
                "AreaEngName": "Majia Township"
            },
            {
                "ZipCode": "904",
                "Name": "九如鄉",
                "AreaEngName": "Jiuru Township"
            },
            {
                "ZipCode": "905",
                "Name": "里港鄉",
                "AreaEngName": "Ligang Township"
            },
            {
                "ZipCode": "906",
                "Name": "高樹鄉",
                "AreaEngName": "Gaoshu Township"
            },
            {
                "ZipCode": "907",
                "Name": "鹽埔鄉",
                "AreaEngName": "Yanpu Township"
            },
            {
                "ZipCode": "908",
                "Name": "長治鄉",
                "AreaEngName": "Changzhi Township"
            },
            {
                "ZipCode": "909",
                "Name": "麟洛鄉",
                "AreaEngName": "Linluo Township"
            },
            {
                "ZipCode": "911",
                "Name": "竹田鄉",
                "AreaEngName": "Zhutian Township"
            },
            {
                "ZipCode": "912",
                "Name": "內埔鄉",
                "AreaEngName": "Neipu Township"
            },
            {
                "ZipCode": "913",
                "Name": "萬丹鄉",
                "AreaEngName": "Wandan Township"
            },
            {
                "ZipCode": "920",
                "Name": "潮州鎮",
                "AreaEngName": "Chaozhou Township"
            },
            {
                "ZipCode": "921",
                "Name": "泰武鄉",
                "AreaEngName": "Taiwu Township"
            },
            {
                "ZipCode": "922",
                "Name": "來義鄉",
                "AreaEngName": "Laiyi Township"
            },
            {
                "ZipCode": "923",
                "Name": "萬巒鄉",
                "AreaEngName": "Wanluan Township"
            },
            {
                "ZipCode": "924",
                "Name": "崁頂鄉",
                "AreaEngName": "Kanding Township"
            },
            {
                "ZipCode": "925",
                "Name": "新埤鄉",
                "AreaEngName": "Xinpi Township"
            },
            {
                "ZipCode": "926",
                "Name": "南州鄉",
                "AreaEngName": "Nanzhou Township"
            },
            {
                "ZipCode": "927",
                "Name": "林邊鄉",
                "AreaEngName": "Linbian Township"
            },
            {
                "ZipCode": "928",
                "Name": "東港鎮",
                "AreaEngName": "Donggang Township"
            },
            {
                "ZipCode": "929",
                "Name": "琉球鄉",
                "AreaEngName": "Liuqiu Township"
            },
            {
                "ZipCode": "931",
                "Name": "佳冬鄉",
                "AreaEngName": "Jiadong Township"
            },
            {
                "ZipCode": "932",
                "Name": "新園鄉",
                "AreaEngName": "Xinyuan Township"
            },
            {
                "ZipCode": "940",
                "Name": "枋寮鄉",
                "AreaEngName": "Fangliao Township"
            },
            {
                "ZipCode": "941",
                "Name": "枋山鄉",
                "AreaEngName": "Fangshan Township"
            },
            {
                "ZipCode": "942",
                "Name": "春日鄉",
                "AreaEngName": "Chunri Township"
            },
            {
                "ZipCode": "943",
                "Name": "獅子鄉",
                "AreaEngName": "Shizi Township"
            },
            {
                "ZipCode": "944",
                "Name": "車城鄉",
                "AreaEngName": "Checheng Township"
            },
            {
                "ZipCode": "945",
                "Name": "牡丹鄉",
                "AreaEngName": "Mudan Township"
            },
            {
                "ZipCode": "946",
                "Name": "恆春鎮",
                "AreaEngName": "Hengchun Township"
            },
            {
                "ZipCode": "947",
                "Name": "滿州鄉",
                "AreaEngName": "Manzhou Township"
            }
        ]
    },
    {
        "Name": "臺東縣",
        "CityEngName": "Taitung County",
        "AreaList": [
            {
                "ZipCode": "950",
                "Name": "臺東市",
                "AreaEngName": "Taitung City"
            },
            {
                "ZipCode": "951",
                "Name": "綠島鄉",
                "AreaEngName": "Ludao Township"
            },
            {
                "ZipCode": "952",
                "Name": "蘭嶼鄉",
                "AreaEngName": "Lanyu Township"
            },
            {
                "ZipCode": "953",
                "Name": "延平鄉",
                "AreaEngName": "Yanping Township"
            },
            {
                "ZipCode": "954",
                "Name": "卑南鄉",
                "AreaEngName": "Beinan Township"
            },
            {
                "ZipCode": "955",
                "Name": "鹿野鄉",
                "AreaEngName": "Luye Township"
            },
            {
                "ZipCode": "956",
                "Name": "關山鎮",
                "AreaEngName": "Guanshan Township"
            },
            {
                "ZipCode": "957",
                "Name": "海端鄉",
                "AreaEngName": "Haiduan Township"
            },
            {
                "ZipCode": "958",
                "Name": "池上鄉",
                "AreaEngName": "Chishang Township"
            },
            {
                "ZipCode": "959",
                "Name": "東河鄉",
                "AreaEngName": "Donghe Township"
            },
            {
                "ZipCode": "961",
                "Name": "成功鎮",
                "AreaEngName": "Chenggong Township"
            },
            {
                "ZipCode": "962",
                "Name": "長濱鄉",
                "AreaEngName": "Changbin Township"
            },
            {
                "ZipCode": "963",
                "Name": "太麻里鄉",
                "AreaEngName": "Taimali Township"
            },
            {
                "ZipCode": "964",
                "Name": "金峰鄉",
                "AreaEngName": "Jinfeng Township"
            },
            {
                "ZipCode": "965",
                "Name": "大武鄉",
                "AreaEngName": "Dawu Township"
            },
            {
                "ZipCode": "966",
                "Name": "達仁鄉",
                "AreaEngName": "Daren Township"
            }
        ]
    },
    {
        "Name": "花蓮縣",
        "CityEngName": "Hualien County",
        "AreaList": [
            {
                "ZipCode": "970",
                "Name": "花蓮市",
                "AreaEngName": "Hualien City"
            },
            {
                "ZipCode": "971",
                "Name": "新城鄉",
                "AreaEngName": "Xincheng Township"
            },
            {
                "ZipCode": "972",
                "Name": "秀林鄉",
                "AreaEngName": "Xiulin Township"
            },
            {
                "ZipCode": "973",
                "Name": "吉安鄉",
                "AreaEngName": "Ji’an Township"
            },
            {
                "ZipCode": "974",
                "Name": "壽豐鄉",
                "AreaEngName": "Shoufeng Township"
            },
            {
                "ZipCode": "975",
                "Name": "鳳林鎮",
                "AreaEngName": "Fenglin Township"
            },
            {
                "ZipCode": "976",
                "Name": "光復鄉",
                "AreaEngName": "Guangfu Township"
            },
            {
                "ZipCode": "977",
                "Name": "豐濱鄉",
                "AreaEngName": "Fengbin Township"
            },
            {
                "ZipCode": "978",
                "Name": "瑞穗鄉",
                "AreaEngName": "Ruisui Township"
            },
            {
                "ZipCode": "979",
                "Name": "萬榮鄉",
                "AreaEngName": "Wanrong Township"
            },
            {
                "ZipCode": "981",
                "Name": "玉里鎮",
                "AreaEngName": "Yuli Township"
            },
            {
                "ZipCode": "982",
                "Name": "卓溪鄉",
                "AreaEngName": "Zhuoxi Township"
            },
            {
                "ZipCode": "983",
                "Name": "富里鄉",
                "AreaEngName": "Fuli Township"
            }
        ]
    }
]